[{"OBJECT_NAME":"ONEWEB-0600","OBJECT_ID":"2022-166Y","EPOCH":"2026-03-09T13:51:18.288864","MEAN_MOTION":13.21823872,"ECCENTRICITY":0.0001532,"INCLINATION":87.9164,"RA_OF_ASC_NODE":263.8434,"ARG_OF_PERICENTER":101.374,"MEAN_ANOMALY":258.7566,"EPHEMERIS_TYPE":0,"CLASSIFICATION_TYPE":"U","NORAD_CAT_ID":54664,"ELEMENT_SET_NO":999,"REV_AT_EPOCH":15835,"BSTAR":7.8723e-5,"MEAN_MOTION_DOT":4.6e-7,"MEAN_MOTION_DDOT":0},{"OBJECT_NAME":"ATLAS H R\/B","OBJECT_ID":"1986-014B","EPOCH":"2026-03-09T13:21:03.144960","MEAN_MOTION":13.74368391,"ECCENTRICITY":0.0301572,"INCLINATION":63.3372,"RA_OF_ASC_NODE":106.1521,"ARG_OF_PERICENTER":137.0398,"MEAN_ANOMALY":225.4626,"EPHEMERIS_TYPE":0,"CLASSIFICATION_TYPE":"U","NORAD_CAT_ID":16592,"ELEMENT_SET_NO":999,"REV_AT_EPOCH":34655,"BSTAR":0.00065274,"MEAN_MOTION_DOT":7.61e-6,"MEAN_MOTION_DDOT":0}]
